NORAD_CAT_ID,OBJECT_NAME,OBJECT_TYPE,EPOCH,MEAN_MOTION,ECCENTRICITY,INCLINATION,RA_OF_ASC_NODE,ARG_OF_PERICENTER,MEAN_ANOMALY,BSTAR,MEAN_MOTION_DOT,MEAN_MOTION_DDOT,TLE_LINE0,TLE_LINE1,TLE_LINE2,SEMIMAJOR_AXIS,PERIOD,APOGEE,PERIGEE,DECAYED
55303.0,STARLINK-5322,PAYLOAD,2024-04-19 14:42:04,14.98335438,0.0002801,70.0019,341.6719,268.2327,91.8512,0.00052769,6.21e-05,0.0,0 STARLINK-5322,1 55303U 23010AL  24110.61255074  .00006210  00000-0  52769-3 0  9991,2 55303  70.0019 341.6719 0002801 268.2327  91.8512 14.98335438 69567,6950.176,96.107,573.988,570.094,0.0
55303.0,STARLINK-5322,PAYLOAD,2024-04-19 21:06:36,14.98346362,0.0002368,70.0032,340.9981,259.4968,100.5925,0.00050408,5.929e-05,0.0,0 STARLINK-5322,1 55303U 23010AL  24110.87958606  .00005929  00000-0  50408-3 0  9994,2 55303  70.0032 340.9981 0002368 259.4968 100.5925 14.98346362 69302,6950.142,96.106,573.653,570.361,0.0
55303.0,STARLINK-5322,PAYLOAD,2024-04-20 01:55:00,14.98349875,0.000226,70.0031,340.4928,256.0508,104.0399,0.0005507,6.487e-05,0.0,0 STARLINK-5322,1 55303U 23010AL  24111.07986267  .00006487  00000-0  55070-3 0  9991,2 55303  70.0031 340.4928 0002260 256.0508 104.0399 14.98349875 69633,6950.131,96.106,573.567,570.426,0.0
55303.0,STARLINK-5322,PAYLOAD,2024-04-20 19:32:28,14.98337421,0.0002603,70.0035,338.6436,232.1021,127.9903,1.8588e-05,1.29e-06,0.0,0 STARLINK-5322,1 55303U 23010AL  24111.81422325  .00000129  00000-0  18588-4 0  9994,2 55303  70.0035 338.6436 0002603 232.1021 127.9903 14.98337421 69444,6950.17,96.107,573.844,570.226,0.0
55303.0,STARLINK-5322,PAYLOAD,2024-04-21 00:20:53,14.9833054,0.0002734,70.0024,338.1375,249.8087,110.2778,-0.00011159,-1.424e-05,0.0,0 STARLINK-5322,1 55303U 23010AL  24112.01450544 -.00001424  00000-0 -11159-3 0  9998,2 55303  70.0024 338.1375 0002734 249.8087 110.2778 14.98330540 69474,6950.191,96.107,573.956,570.156,0.0
55303.0,STARLINK-5322,PAYLOAD,2024-04-21 14:46:06,14.98329402,0.0002629,70.002,336.6207,263.1419,96.9441,-1.8796e-05,-3.17e-06,0.0,0 STARLINK-5322,1 55303U 23010AL  24112.61534771 -.00000317  00000-0 -18796-4 0  9994,2 55303  70.0020 336.6207 0002629 263.1419  96.9441 14.98329402 69863,6950.195,96.107,573.887,570.233,0.0
55303.0,STARLINK-5322,PAYLOAD,2024-04-21 22:46:46,14.98329648,0.0002554,70.0019,335.7789,254.9058,105.1819,9.5693e-05,1.049e-05,0.0,0 STARLINK-5322,1 55303U 23010AL  24112.94914999  .00001049  00000-0  95693-4 0  9996,2 55303  70.0019 335.7789 0002554 254.9058 105.1819 14.98329648 69910,6950.194,96.107,573.834,570.284,0.0
55303.0,STARLINK-5322,PAYLOAD,2024-04-22 00:22:54,14.98334353,0.0002904,70.0009,335.6094,271.8195,88.2632,0.00022262,2.565e-05,0.0,0 STARLINK-5322,1 55303U 23010AL  24113.01590788  .00002565  00000-0  22262-3 0  9996,2 55303  70.0009 335.6094 0002904 271.8195  88.2632 14.98334353 69627,6950.179,96.107,574.063,570.026,0.0
55303.0,STARLINK-5322,PAYLOAD,2024-04-22 19:36:31,14.98327116,0.0002821,70.0011,333.5914,260.3455,99.7386,0.00020143,2.311e-05,0.0,0 STARLINK-5322,1 55303U 23010AL  24113.81703321  .00002311  00000-0  20143-3 0  9998,2 55303  70.0011 333.5914 0002821 260.3455  99.7386 14.98327116 69743,6950.202,96.107,574.027,570.106,0.0
55303.0,STARLINK-5322,PAYLOAD,2024-04-22 22:48:47,14.98330792,0.0002871,70.0006,333.2538,263.534,96.5492,0.00024124,2.787e-05,0.0,0 STARLINK-5322,1 55303U 23010AL  24113.95055145  .00002787  00000-0  24124-3 0  9997,2 55303  70.0006 333.2538 0002871 263.5340  96.5492 14.98330792 70063,6950.19,96.107,574.051,570.06,0.0
55303.0,STARLINK-5322,PAYLOAD,2024-04-23 14:50:08,14.98329045,0.0002856,70.0008,331.5697,267.8254,92.2578,0.00023755,2.742e-05,0.0,0 STARLINK-5322,1 55303U 23010AL  24114.61815360  .00002742  00000-0  23755-3 0  9994,2 55303  70.0008 331.5697 0002856 267.8254  92.2578 14.98329045 70164,6950.196,96.107,574.046,570.076,0.0
55303.0,STARLINK-5322,PAYLOAD,2024-04-23 21:14:40,14.98332353,0.0002754,70.0008,330.8972,261.2028,98.8819,0.0002207,2.541e-05,0.0,0 STARLINK-5322,1 55303U 23010AL  24114.88519150  .00002541  00000-0  22070-3 0  9997,2 55303  70.0008 330.8972 0002754 261.2028  98.8819 14.98332353 69902,6950.186,96.107,573.965,570.137,0.0
55303.0,STARLINK-5322,PAYLOAD,2024-04-24 13:16:00,14.98343005,0.0002416,70.0013,329.2133,254.9945,105.0946,-5.3501e-05,-7.31e-06,0.0,0 STARLINK-5322,1 55303U 23010AL  24115.55278527 -.00000731  00000-0 -53501-4 0  9997,2 55303  70.0013 329.2133 0002416 254.9945 105.0946 14.98343005 70305,6950.153,96.106,573.697,570.339,0.0
55303.0,STARLINK-5322,PAYLOAD,2024-04-24 21:16:41,14.98334356,0.0002563,70.0009,328.3714,256.5791,103.5082,-9.267e-05,-1.199e-05,0.0,0 STARLINK-5322,1 55303U 23010AL  24115.88658848 -.00001199  00000-0 -92670-4 0  9990,2 55303  70.0009 328.3714 0002563 256.5791 103.5082 14.98334356 70050,6950.179,96.107,573.826,570.263,0.0
55303.0,STARLINK-5322,PAYLOAD,2024-04-25 14:54:10,14.98340198,0.0002746,70.0,326.5189,264.8401,95.2444,-0.00012741,-1.613e-05,0.0,0 STARLINK-5322,1 55303U 23010AL  24116.62095084 -.00001613  00000-0 -12741-3 0  9991,2 55303  70.0000 326.5189 0002746 264.8401  95.2444 14.98340198 70465,6950.161,96.106,573.935,570.118,0.0
55303.0,STARLINK-5322,PAYLOAD,2024-04-25 21:18:42,14.98330187,0.000274,69.9995,325.8455,262.4103,97.6745,6.3293e-05,6.62e-06,0.0,0 STARLINK-5322,1 55303U 23010AL  24116.88799279  .00000662  00000-0  63293-4 0  9996,2 55303  69.9995 325.8455 0002740 262.4103  97.6745 14.98330187 70209,6950.192,96.107,573.962,570.153,0.0
55303.0,STARLINK-5322,PAYLOAD,2024-04-26 06:55:30,14.98344605,0.0002844,69.9996,324.8356,259.5335,100.5503,-0.00017246,-2.151e-05,0.0,0 STARLINK-5322,1 55303U 23010AL  24117.28854505 -.00002151  00000-0 -17246-3 0  9998,2 55303  69.9996 324.8356 0002844 259.5335 100.5503 14.98344605 70260,6950.148,96.106,573.989,570.036,0.0
55303.0,STARLINK-5322,PAYLOAD,2024-04-26 14:56:10,14.98334214,0.0002896,69.9993,323.9937,270.0296,90.0531,0.00011769,1.312e-05,0.0,0 STARLINK-5322,1 55303U 23010AL  24117.62234710  .00001312  00000-0  11769-3 0  9996,2 55303  69.9993 323.9937 0002896 270.0296  90.0531 14.98334214 70611,6950.18,96.107,574.058,570.032,0.0
55303.0,STARLINK-5322,PAYLOAD,2024-04-26 19:44:34,14.98335631,0.0002894,69.9993,323.4889,269.4478,90.6349,0.00012958,1.454e-05,0.0,0 STARLINK-5322,1 55303U 23010AL  24117.82262558  .00001454  00000-0  12958-3 0  9997,2 55303  69.9993 323.4889 0002894 269.4478  90.6349 14.98335631 70644,6950.175,96.107,574.052,570.029,0.0
55303.0,STARLINK-5322,PAYLOAD,2024-04-27 19:46:36,14.98329478,0.0002725,69.999,320.9631,266.2972,93.7876,6.6417e-05,7e-06,0.0,0 STARLINK-5322,1 55303U 23010AL  24118.82402878  .00000700  00000-0  66417-4 0  9992,2 55303  69.9990 320.9631 0002725 266.2972  93.7876 14.98329478 70499,6950.195,96.107,573.953,570.166,0.0
55303.0,STARLINK-5322,PAYLOAD,2024-04-27 21:22:44,14.98326138,0.0002777,69.9991,320.7942,265.9772,94.1069,3.6728e-05,3.45e-06,0.0,0 STARLINK-5322,1 55303U 23010AL  24118.89079160  .00000345  00000-0  36728-4 0  9990,2 55303  69.9991 320.7942 0002777 265.9772  94.1069 14.98326138 70808,6950.205,96.107,574.0,570.14,0.0
55303.0,STARLINK-5322,PAYLOAD,2024-04-28 15:00:13,14.98327623,0.0002979,69.9982,318.9415,269.3199,90.7619,-1.7221e-05,-2.98e-06,0.0,0 STARLINK-5322,1 55303U 23010AL  24119.62515086 -.00000298  00000-0 -17221-4 0  9990,2 55303  69.9982 318.9415 0002979 269.3199  90.7619 14.98327623 70912,6950.2,96.107,574.136,569.995,0.0
55303.0,STARLINK-5322,PAYLOAD,2024-04-28 21:24:45,14.9832912,0.000289,69.9983,318.2692,267.4307,92.6521,-7.8473e-05,-1.029e-05,0.0,0 STARLINK-5322,1 55303U 23010AL  24119.89219173 -.00001029  00000-0 -78473-4 0  9996,2 55303  69.9983 318.2692 0002890 267.4307  92.6521 14.98329120 70653,6950.196,96.107,574.069,570.052,0.0
55303.0,STARLINK-5322,PAYLOAD,2024-04-29 15:02:13,14.9833005,0.0003081,69.998,316.4177,269.0519,91.0287,6.4e-05,6.71e-06,0.0,0 STARLINK-5322,1 55303U 23010AL  24120.62654732  .00000671  00000-0  64000-4 0  9994,2 55303  69.9980 316.4177 0003081 269.0519  91.0287 14.98330050 71066,6950.193,96.107,574.199,569.916,0.0
55303.0,STARLINK-5322,PAYLOAD,2024-04-29 21:26:45,14.98331766,0.0003076,69.998,315.7444,269.0522,91.0284,8.0182e-05,8.64e-06,0.0,0 STARLINK-5322,1 55303U 23010AL  24120.89358585  .00000864  00000-0  80182-4 0  9993,2 55303  69.9980 315.7444 0003076 269.0522  91.0284 14.98331766 70806,6950.187,96.107,574.19,569.915,0.0
55303.0,STARLINK-5322,PAYLOAD,2024-04-30 15:04:14,14.98328897,0.0003023,69.9982,313.8923,269.3163,90.765,9.3831e-05,1.027e-05,0.0,0 STARLINK-5322,1 55303U 23010AL  24121.62794725  .00001027  00000-0  93831-4 0  9992,2 55303  69.9982 313.8923 0003023 269.3163  90.7650 14.98328897 71215,6950.196,96.107,574.162,569.96,0.0
55303.0,STARLINK-5322,PAYLOAD,2024-04-30 21:28:46,14.98330131,0.0003072,69.9981,313.2192,269.6777,90.403,7.9712e-05,8.58e-06,0.0,0 STARLINK-5322,1 55303U 23010AL  24121.89498699  .00000858  00000-0  79712-4 0  9995,2 55303  69.9981 313.2192 0003072 269.6777  90.4030 14.98330131 71251,6950.192,96.107,574.193,569.922,0.0
55303.0,STARLINK-5322,PAYLOAD,2024-05-01 05:29:27,14.98331035,0.0003071,69.9981,312.3774,269.6443,90.4364,6.8271e-05,7.22e-06,0.0,0 STARLINK-5322,1 55303U 23010AL  24122.22878659  .00000722  00000-0  68271-4 0  9999,2 55303  69.9981 312.3774 0003071 269.6443  90.4364 14.98331035 71003,6950.19,96.107,574.189,569.92,0.0
55303.0,STARLINK-5322,PAYLOAD,2024-05-01 11:53:59,14.98333096,0.0002995,69.9983,311.7043,270.397,89.6845,1.4789e-05,8.3e-07,0.0,0 STARLINK-5322,1 55303U 23010AL  24122.49582652  .00000083  00000-0  14789-4 0  9998,2 55303  69.9983 311.7043 0002995 270.3970  89.6845 14.98333096 71345,6950.183,96.107,574.13,569.967,0.0
55303.0,STARLINK-5322,PAYLOAD,2024-05-02 13:32:08,14.98330715,0.0003034,69.9983,309.0108,268.8217,91.2595,7.8469e-06,1e-08,0.0,0 STARLINK-5322,1 55303U 23010AL  24123.56398628  .00000001  00000-0  78469-5 0  9991,2 55303  69.9983 309.0108 0003034 268.8217  91.2595 14.98330715 71209,6950.191,96.107,574.164,569.947,0.0
